[Satellite]
VERSION=1.1
NAME=SL-14 R/B
NICKNAME=SL-14 R/B
TLE1=1 16792U 86046B   17186.27109667  .00000086  00000-0  76547-5 0  9998
TLE2=2 16792  82.4816 185.3923 0022996 231.3086 205.4029 14.83136380656475
